{"fetched_at":"2026-03-29T02:12:04Z","count":15717,"tles":[{"name":"STARLINK-31851","line1":"1 59844U 24097K   26087.55281901 -.00000248  00000+0  52619-6 0  9999","line2":"2 59844  43.0015 167.6627 0001061 240.2097 119.8649 15.27579719104806","category":"Starlink"}]}